ONEWEB-0650             
1 55813U 23029T   23355.86835610  .00000086  00000+0  18303-3 0  9994
2 55813  87.9203 125.7697 0001859 117.8181 242.3140 13.19725224 39093
ONEWEB-0652             
1 55814U 23029U   23355.85596578  .00000673  00000+0  17806-2 0  9999
2 55814  87.8990 110.5123 0001830  71.4181 288.7148 13.14504393 40031
ONEWEB-0653             
1 55815U 23029V   23355.84008533  .00000128  00000+0  31150-3 0  9992
2 55815  87.8989 110.4928 0001245 106.8843 253.2423 13.14500833 40061
ONEWEB-0654             
1 55816U 23029W   23355.83533888  .00000019  00000+0  16143-4 0  9993
2 55816  87.8985 110.5090 0001307  85.9085 274.2194 13.14504546 40088
ONEWEB-0656             
1 55817U 23029X   23355.65290915  .00000105  00000+0  22723-3 0  9991
2 55817  87.9206  95.2600 0002083  85.4184 274.7188 13.20774196 41221
ONEWEB-0657             
1 55818U 23029Y   23355.86361526  .00000088  00000+0  18637-3 0  9991
2 55818  87.9203 125.7761 0002440  87.9481 272.1931 13.19724209 39100
ONEWEB-0658             
1 55819U 23029Z   23355.93468163 -.00000143  00000+0 -38943-3 0  9991
2 55819  87.9202 125.6996 0001926 123.9034 236.2282 13.19725206 39122
ONEWEB-0660             
1 55820U 23029AA  23355.35642378 -.00000124  00000+0 -36761-3 0  9996
2 55820  87.8987 110.5802 0001374 129.2797 230.8455 13.14506745 40005
